start=new Date('2022-10-07T00:00:00.000Z').valueOf();
sats=[{"MEAN_MOTION":"15.06397084","RCS_SIZE":"LARGE","TIME_SYSTEM":"UTC","MEAN_MOTION_DOT":"0.00004469","REF_FRAME":"TEME","REV_AT_EPOCH":"10842","OBJECT_ID":"2020-074AV","NORAD_CAT_ID":"46782","TLE_LINE2":"2 46782  53.0542 162.6923 0001299  90.1018 270.0120 15.06397084108427","MEAN_MOTION_DDOT":"0.0000000000000","MEAN_ELEMENT_THEORY":"SGP4","RA_OF_ASC_NODE":"162.6923","INCLINATION":"53.0542","ARG_OF_PERICENTER":"90.1018","DECAY_DATE":null,"LAUNCH_DATE":"2020-10-24","CENTER_NAME":"EARTH","ELEMENT_SET_NO":"999","APOAPSIS":"548.122","TLE_LINE1":"1 46782U 20074AV  22279.77850752  .00004469  00000-0  31872-3 0  9990","SEMIMAJOR_AXIS":"6925.357","BSTAR":"0.00031872000000","OBJECT_TYPE":"PAYLOAD","OBJECT_NAME":"STARLINK-1835","ECCENTRICITY":"0.00012990","PERIAPSIS":"546.323","MEAN_ANOMALY":"270.0120","PERIOD":"95.592","CLASSIFICATION_TYPE":"U","FILE":"3594620","EPHEMERIS_TYPE":"0","GP_ID":"214357301","EPOCH":"2022-10-06T18:41:03.049728","COUNTRY_CODE":"US","SITE":"AFETR"},{"LAUNCH_DATE":"2020-10-24","DECAY_DATE":null,"ARG_OF_PERICENTER":"89.4616","APOAPSIS":"548.083","ELEMENT_SET_NO":"999","CENTER_NAME":"EARTH","REV_AT_EPOCH":"10804","REF_FRAME":"TEME","MEAN_MOTION_DOT":"-0.00000914","TIME_SYSTEM":"UTC","RCS_SIZE":"LARGE","MEAN_MOTION":"15.06395467","INCLINATION":"53.0530","RA_OF_ASC_NODE":"165.9035","MEAN_MOTION_DDOT":"0.0000000000000","MEAN_ELEMENT_THEORY":"SGP4","TLE_LINE2":"2 46783  53.0530 165.9035 0001236  89.4616 270.6514 15.06395467108045","NORAD_CAT_ID":"46783","OBJECT_ID":"2020-074AW","FILE":"3594108","CLASSIFICATION_TYPE":"U","SITE":"AFETR","COUNTRY_CODE":"US","EPOCH":"2022-10-06T01:31:20.555040","GP_ID":"214324686","EPHEMERIS_TYPE":"0","MEAN_ANOMALY":"270.6514","PERIAPSIS":"546.371","ECCENTRICITY":"0.00012360","OBJECT_NAME":"STARLINK-1851","BSTAR":"-0.00004246500000","OBJECT_TYPE":"PAYLOAD","SEMIMAJOR_AXIS":"6925.362","TLE_LINE1":"1 46783U 20074AW  22279.06343235 -.00000914  00000-0 -42465-4 0  9990","PERIOD":"95.592"},{"TLE_LINE1":"1 46784U 20074AX  22279.79599352  .00003370  00000-0  24512-3 0  9993","SEMIMAJOR_AXIS":"6925.380","BSTAR":"0.00024512000000","OBJECT_TYPE":"PAYLOAD","OBJECT_NAME":"STARLINK-1882","PERIAPSIS":"546.285","MEAN_ANOMALY":"270.2496","ECCENTRICITY":"0.00013870","PERIOD":"95.593","CLASSIFICATION_TYPE":"U","FILE":"3594620","EPHEMERIS_TYPE":"0","GP_ID":"214358802","EPOCH":"2022-10-06T19:06:13.840128","COUNTRY_CODE":"US","SITE":"AFETR","MEAN_MOTION":"15.06389669","RCS_SIZE":"LARGE","TIME_SYSTEM":"UTC","MEAN_MOTION_DOT":"0.00003370","REF_FRAME":"TEME","REV_AT_EPOCH":"10842","OBJECT_ID":"2020-074AX","NORAD_CAT_ID":"46784","TLE_LINE2":"2 46784  53.0541 162.5860 0001387  89.8651 270.2496 15.06389669108421","MEAN_MOTION_DDOT":"0.0000000000000","MEAN_ELEMENT_THEORY":"SGP4","RA_OF_ASC_NODE":"162.5860","INCLINATION":"53.0541","ARG_OF_PERICENTER":"89.8651","DECAY_DATE":null,"LAUNCH_DATE":"2020-10-24","ELEMENT_SET_NO":"999","CENTER_NAME":"EARTH","APOAPSIS":"548.206"},{"CLASSIFICATION_TYPE":"U","FILE":"3594451","EPHEMERIS_TYPE":"0","GP_ID":"214333002","EPOCH":"2022-10-06T20:21:53.901792","SITE":"AFETR","COUNTRY_CODE":"US","TLE_LINE1":"1 46785U 20074AY  22279.84854053  .00002340  00000-0  17595-3 0  9991","OBJECT_TYPE":"PAYLOAD","BSTAR":"0.00017595000000","SEMIMAJOR_AXIS":"6925.366","PERIAPSIS":"546.262","MEAN_ANOMALY":"256.7571","ECCENTRICITY":"0.00013980","OBJECT_NAME":"STARLINK-1883","PERIOD":"95.592","DECAY_DATE":null,"ARG_OF_PERICENTER":"103.3574","LAUNCH_DATE":"2020-10-24","CENTER_NAME":"EARTH","ELEMENT_SET_NO":"999","APOAPSIS":"548.199","TIME_SYSTEM":"UTC","RCS_SIZE":"LARGE","MEAN_MOTION":"15.06394439","REF_FRAME":"TEME","MEAN_MOTION_DOT":"0.00002340","REV_AT_EPOCH":"10811","OBJECT_ID":"2020-074AY","NORAD_CAT_ID":"46785","TLE_LINE2":"2 46785  53.0541 162.3700 0001398 103.3574 256.7571 15.06394439108111","RA_OF_ASC_NODE":"162.3700","INCLINATION":"53.0541","MEAN_ELEMENT_THEORY":"SGP4","MEAN_MOTION_DDOT":"0.0000000000000"},{"PERIOD":"95.592","TLE_LINE1":"1 46786U 20074AZ  22279.89461986  .00006528  00000-0  45681-3 0  9995","OBJECT_TYPE":"PAYLOAD","BSTAR":"0.00045681000000","SEMIMAJOR_AXIS":"6925.364","MEAN_ANOMALY":"250.6115","PERIAPSIS":"546.318","ECCENTRICITY":"0.00013160","OBJECT_NAME":"STARLINK-1893","EPHEMERIS_TYPE":"0","GP_ID":"214357801","EPOCH":"2022-10-06T21:28:15.155904","SITE":"AFETR","COUNTRY_CODE":"US","CLASSIFICATION_TYPE":"U","FILE":"3594620","OBJECT_ID":"2020-074AZ","TLE_LINE2":"2 46786  53.0527 142.1794 0001316 109.5017 250.6115 15.06394997108728","NORAD_CAT_ID":"46786","INCLINATION":"53.0527","RA_OF_ASC_NODE":"142.1794","MEAN_ELEMENT_THEORY":"SGP4","MEAN_MOTION_DDOT":"0.0000000000000","RCS_SIZE":"LARGE","TIME_SYSTEM":"UTC","MEAN_MOTION":"15.06394997","REF_FRAME":"TEME","MEAN_MOTION_DOT":"0.00006528","REV_AT_EPOCH":"10872","ELEMENT_SET_NO":"999","CENTER_NAME":"EARTH","APOAPSIS":"548.140","DECAY_DATE":null,"ARG_OF_PERICENTER":"109.5017","LAUNCH_DATE":"2020-10-24"},{"MEAN_ANOMALY":"248.0218","PERIAPSIS":"546.360","ECCENTRICITY":"0.00012270","OBJECT_NAME":"STARLINK-1899","BSTAR":"0.00059850000000","OBJECT_TYPE":"PAYLOAD","SEMIMAJOR_AXIS":"6925.345","TLE_LINE1":"1 46787U 20074BA  22279.88725234  .00008645  00000-0  59850-3 0  9999","PERIOD":"95.592","FILE":"3594620","CLASSIFICATION_TYPE":"U","SITE":"AFETR","COUNTRY_CODE":"US","EPOCH":"2022-10-06T21:17:38.602176","GP_ID":"214358051","EPHEMERIS_TYPE":"0","REV_AT_EPOCH":"10872","REF_FRAME":"TEME","MEAN_MOTION_DOT":"0.00008645","TIME_SYSTEM":"UTC","RCS_SIZE":"LARGE","MEAN_MOTION":"15.06401293","RA_OF_ASC_NODE":"142.2022","INCLINATION":"53.0544","MEAN_ELEMENT_THEORY":"SGP4","MEAN_MOTION_DDOT":"0.0000000000000","NORAD_CAT_ID":"46787","TLE_LINE2":"2 46787  53.0544 142.2022 0001227 112.0901 248.0218 15.06401293108728","OBJECT_ID":"2020-074BA","LAUNCH_DATE":"2020-10-24","DECAY_DATE":null,"ARG_OF_PERICENTER":"112.0901","APOAPSIS":"548.059","CENTER_NAME":"EARTH","ELEMENT_SET_NO":"999"},{"LAUNCH_DATE":"2020-10-24","DECAY_DATE":null,"ARG_OF_PERICENTER":"78.7785","CENTER_NAME":"EARTH","ELEMENT_SET_NO":"999","APOAPSIS":"548.264","REF_FRAME":"TEME","MEAN_MOTION_DOT":"0.00016148","REV_AT_EPOCH":"10872","TIME_SYSTEM":"UTC","RCS_SIZE":"LARGE","MEAN_MOTION":"15.06411731","TLE_LINE2":"2 46788  53.0519 142.2331 0001569  78.7785 281.3380 15.06411731108729","NORAD_CAT_ID":"46788","RA_OF_ASC_NODE":"142.2331","INCLINATION":"53.0519","MEAN_ELEMENT_THEORY":"SGP4","MEAN_MOTION_DDOT":"0.0000000000000","OBJECT_ID":"2020-074BB","FILE":"3594620","CLASSIFICATION_TYPE":"U","EPOCH":"2022-10-06T21:07:01.556832","SITE":"AFETR","COUNTRY_CODE":"US","EPHEMERIS_TYPE":"0","GP_ID":"214358303","PERIAPSIS":"546.091","ECCENTRICITY":"0.00015690","MEAN_ANOMALY":"281.3380","OBJECT_NAME":"STARLINK-1929","TLE_LINE1":"1 46788U 20074BB  22279.87987913  .00016148  00000-0  11001-2 0  9995","OBJECT_TYPE":"PAYLOAD","BSTAR":"0.00110010000000","SEMIMAJOR_AXIS":"6925.313","PERIOD":"95.591"},{"NORAD_CAT_ID":"46789","TLE_LINE2":"2 46789  53.0543 172.5981 0001259  78.9385 281.1746 15.06409068108294","RA_OF_ASC_NODE":"172.5981","INCLINATION":"53.0543","MEAN_MOTION_DDOT":"0.0000000000000","MEAN_ELEMENT_THEORY":"SGP4","OBJECT_ID":"2020-074BC","REF_FRAME":"TEME","MEAN_MOTION_DOT":"-0.00006171","REV_AT_EPOCH":"10829","RCS_SIZE":"LARGE","TIME_SYSTEM":"UTC","MEAN_MOTION":"15.06409068","ELEMENT_SET_NO":"999","CENTER_NAME":"EARTH","APOAPSIS":"548.058","LAUNCH_DATE":"2020-10-24","DECAY_DATE":null,"ARG_OF_PERICENTER":"78.9385","PERIOD":"95.592","MEAN_ANOMALY":"281.1746","PERIAPSIS":"546.314","ECCENTRICITY":"0.00012590","OBJECT_NAME":"STARLINK-1930","TLE_LINE1":"1 46789U 20074BC  22279.83657404 -.00006171  00000-0 -39566-3 0  9995","BSTAR":"-0.00039566000000","OBJECT_TYPE":"PAYLOAD","SEMIMAJOR_AXIS":"6925.321","EPOCH":"2022-10-06T20:04:39.997056","SITE":"AFETR","COUNTRY_CODE":"US","EPHEMERIS_TYPE":"0","GP_ID":"214357278","FILE":"3594620","CLASSIFICATION_TYPE":"U"},{"SEMIMAJOR_AXIS":"6925.365","OBJECT_TYPE":"PAYLOAD","BSTAR":"0.00016402000000","TLE_LINE1":"1 46790U 20074BD  22279.86604478  .00002162  00000-0  16402-3 0  9991","OBJECT_NAME":"STARLINK-1931","MEAN_ANOMALY":"248.9809","PERIAPSIS":"546.320","ECCENTRICITY":"0.00013140","PERIOD":"95.592","CLASSIFICATION_TYPE":"U","FILE":"3594272","GP_ID":"214328621","EPHEMERIS_TYPE":"0","COUNTRY_CODE":"US","SITE":"AFETR","EPOCH":"2022-10-06T20:47:06.268992","MEAN_MOTION":"15.06394522","TIME_SYSTEM":"UTC","RCS_SIZE":"LARGE","REV_AT_EPOCH":"10797","MEAN_MOTION_DOT":"0.00002162","REF_FRAME":"TEME","OBJECT_ID":"2020-074BD","MEAN_ELEMENT_THEORY":"SGP4","MEAN_MOTION_DDOT":"0.0000000000000","INCLINATION":"53.0530","RA_OF_ASC_NODE":"172.3037","NORAD_CAT_ID":"46790","TLE_LINE2":"2 46790  53.0530 172.3037 0001314 111.1320 248.9809 15.06394522107976","ARG_OF_PERICENTER":"111.1320","DECAY_DATE":null,"LAUNCH_DATE":"2020-10-24","APOAPSIS":"548.140","CENTER_NAME":"EARTH","ELEMENT_SET_NO":"999"},{"REV_AT_EPOCH":"10818","REF_FRAME":"TEME","MEAN_MOTION_DOT":"-0.00001884","RCS_SIZE":"LARGE","TIME_SYSTEM":"UTC","MEAN_MOTION":"15.06389023","INCLINATION":"53.0555","RA_OF_ASC_NODE":"175.8144","MEAN_ELEMENT_THEORY":"SGP4","MEAN_MOTION_DDOT":"0.0000000000000","NORAD_CAT_ID":"46791","TLE_LINE2":"2 46791  53.0555 175.8144 0001450 100.0092 260.1061 15.06389023108185","OBJECT_ID":"2020-074BE","LAUNCH_DATE":"2020-10-24","DECAY_DATE":null,"ARG_OF_PERICENTER":"100.0092","APOAPSIS":"548.251","ELEMENT_SET_NO":"999","CENTER_NAME":"EARTH","ECCENTRICITY":"0.00014500","PERIAPSIS":"546.243","MEAN_ANOMALY":"260.1061","OBJECT_NAME":"STARLINK-1933","OBJECT_TYPE":"PAYLOAD","BSTAR":"-0.00010762000000","SEMIMAJOR_AXIS":"6925.382","TLE_LINE1":"1 46791U 20074BE  22279.08463427 -.00001884  00000-0 -10762-3 0  9998","PERIOD":"95.593","FILE":"3593749","CLASSIFICATION_TYPE":"U","SITE":"AFETR","COUNTRY_CODE":"US","EPOCH":"2022-10-06T02:01:52.400928","GP_ID":"214312735","EPHEMERIS_TYPE":"0"}];
